Location,Address,Latitude,Longitude
D1 Training Alamo Ranch,"11121 Westwood Loop Ste 104 San Antonio, TX 78253",29.493519,-98.711892
D1 Training Aledo,"250 Bailey Ranch Road Aledo, TX 76008",32.709125,-97.604853
D1 Training Armonk,"130 Business Park Dr Armonk, NY 10504",41.116992,-73.708429
D1 Training Dallas,"8081 Walnut Hill Lane Dallas, TX 75231",32.882242,-96.767224
D1 Training Anderson Township,"8315 Beechmont Ave Â Suite 40 Cincinnati, OH 45255",39.071821,-84.324706
D1 Training Arcadia,"2303 N 44th Street Phoenix, AZ 85008",33.473781,-111.986578
D1 Training Arlington,"3811 S. Cooper Street Â Suite #1198 Arlington, TX 76015",32.680153,-97.12898
D1 Training Arlington Heights,"71 W Rand Road Arlington Heights, IL 60004",42.114085,-87.984923
D1 Training Fox Valley,"403 S IL-59 Aurora, IL 60504",41.750427,-88.208628
D1 Training Atascocita,"7040 FM 1960 East Unit B Humble, TX 77346",29.998242,-95.174457
D1 Training Athens,"7920 Macon HWY Suite 150 Watkinsville, GA 30677",33.887248,-83.412777
D1 Training Aurora,"18825 N. Marketplace Dr. Aurora, OH 44202",41.359562,-81.386472
D1 Training Baton Rouge,"6401 Bluebonnet Blvd Â Ste 505 Baton Rouge, LA 70836",30.389106,-91.087554
D1 Training Beaverton,"11445 SW Scholls Ferry Rd. Beaverton, OR 97008",45.446608,-122.794061
D1 Training Frisco,"4944 Preston Road, Suite 252, Frisco, TX 75034",33.119735,-96.803935
D1 Training Bergen County,"107 Pleasant Avenue Upper Saddle River, NJ 07458",41.051628,-74.117372
D1 Training Billings,"1678 Shiloh Rd Â Ste 3 Billings, MT 59106",45.786434,-108.618914
D1 Training Bloomingdale,"400 Army Trail Road Â #103 Bloomingdale, IL 60108",41.939155,-88.115476
D1 Training Blount,"3443 Louisville Road Louisville, TN 37777",35.818942,-84.055247
D1 Training Boerne,"132 Old San Antonio Road Boerne, TX 78006",29.762129,-98.709809
D1 Training Boise,"3750 E. Pewter Falls Street Â STE 120 Meridian, ID 83642",43.58712,-116.347056
D1 Training Mission Viejo,"555 The Shops at Mission Viejo Mission Viejo, CA 92691",33.605527,-117.667923
D1 Training Bowling Green,"946 Searcy Way Bowling Green, KY 42103",36.955906,-86.418752
D1 Training North Shore,"2345 Willow Road Glenview, IL 60025",42.105437,-87.790159
D1 Training Bryant,"1800 N. Reynolds Road Â Suite 4 Bryant, AR 72002",34.611393,-92.494484
D1 Training Buford,"2725 Hamilton Mill Road Â Suite A800 Buford, GA 30519",34.081457,-83.919638
D1 Training Bux-Mont,"285 Bethlehem Pike Colmar, PA 18915",40.275129,-75.25837
D1 Training Cabot,"209 North 10th Street Cabot, AR 72023",34.970545,-92.025323
D1 Training Carmel,"650 W. Carmel Dr., Suite 120 Carmel, IN 46032",39.965664,-86.140346
D1 Training Cedar Park,"601 W. New Hope Drive Cedar Park, TX 78613",30.531182,-97.842332
D1 Training Centennial Hills,"7083 W. Craig Road, Suite 180 Las Vegas, NV 89129",36.239665,-115.248772
D1 Training Oswego,"1670 Douglas Rd Oswego, IL 60543",41.696969,-88.311027
D1 Training Chattanooga,"7430 Commons Boulevard Chattanooga, TN 37421",35.034772,-85.148365
D1 Training Cincy North,"9573 Fields Ertel Road Loveland, OH 45140",39.289167,-84.297433
D1 Training Colleyville,"4906 Colleyville Blvd Â Suite 214 Colleyville, TX 76034",32.882534,-97.156649
D1 Training Colorado Springs,"5815 Mark Dabling Boulevard Colorado Springs, CO 80919",38.917205,-104.820834
D1 Training Cool Springs,"7115 South Springs Drive Franklin, TN 37067",35.951959,-86.814945
D1 Training Coral Springs,"3450 NW 62nd Ave Margate, FL 33063",26.654642,-80.140165
D1 Training Coralville,"2441 James St. Suite 2 Coralville, IA 52241",41.684885,-91.603588
D1 Training Pleasanton,"4299 Rosewood Dr, Suite 100 Pleasanton, CA 94588",37.699486,-121.873057
D1 Training Deerfield Beach,"1401 Green Road Â Suites D/E/F Deerfield Beach, FL 33064",26.668544,-80.060475
D1 Training DeLand,"2610 S Woodland Blvd Deland, FL 32720",28.982604,-81.300191
D1 Training Denton,"2119 Sadau Ct Denton, TX 76210",33.188837,-97.10206
D1 Training Princeton,"3373 Brunswick Pike RT.1 Â #46 Lawrenceville, NJ 08648",40.294798,-74.682758
D1 Training Downtown Orlando,"2771 E. Livingston Street Orlando, FL 32803",28.548224,-81.348261
D1 Training Dr. Phillips,"11444 S. Apopka Vineland Rd., Suite 105 Orlando, FL 32836",28.399233,-81.503585
D1 Training East Cooper,"1220 Ben Sawyer Blvd Mt Pleasant, SC 29464",32.794611,-79.861222
D1 Training East Jacksonville,"11744 Beach Blvd Jacksonville, FL 32246",30.285891,-81.513579
D1 Training East Mesa,"1257 S. Crismon Rd Suite 104 Mesa, AZ 85209",33.391704,-111.614985
D1 Training East Wichita,"12938 E 21st N Â Suite 120 Wichita, KS 67230",37.723574,-97.187622
D1 Training East Woodlands,"8821 Metropark Dr Â STE 300 Shenandoah, TX 77385",30.195155,-95.452703
D1 Training Edmond,"1289 E 15th Street Â Suite 112 Edmond, OK 73013",35.638431,-97.463657
D1 Training Fairport,"25 Parce Ave. Â Suite 115 Fairport, NY 14450",43.105111,-77.443289
D1 Training Prosper,"100 S. Preston Road Suite 30 Prosper, TX 75078",33.235399,-96.790883
D1 Training Fort Myers,"9359 Six-Mile Cypress Parkway Â STE 415 Fort Myers, FL 33966",26.545453,-81.909597
D1 Training Fort Wayne SW,"9307 Illinois Road Fort Wayne, IN 46804",41.074046,-85.262938
D1 Training Reston,"1700 Bracknell Dr. Suite A Reston, VA 20194",38.96731,-77.35777
D1 Training Sandy,"61 West 10600 South Sandy, UT 84070",40.558151,-111.892674
D1 Training Southlake,"500 W. Southlake Blvd, Suite 100 Southlake, TX 76092",32.941549,-97.158583
D1 Training Gainesville,"426 SW 140th Ter Â Suite 1 Newberry, FL 32669",29.649491,-82.491319
D1 Training Spring,"8727 W. Rayford Rd. Â Suite 150 Spring, TX 77389",30.124278,-95.51655
D1 Training Grand Rapids,"5435 28th Street Court SE Grand Rapids, MI 49546",42.917052,-85.533277
D1 Training Greenville,"1280 Woodruff Rd Greenville, SC 29607",34.820736,-82.285602
D1 Training Torrance,"21760 Hawthorne Blvd Ste 284A Torrance, CA 90503",33.830645,-118.349442
D1 Training Hardin Valley,"10258 Hardin Valley Road Hardin Valley, TN 37932",35.955173,-84.141403
D1 Training Henderson,"1300 W Sunset Road Â Ste 1920 Henderson, NV 89014",36.069431,-115.043861
D1 Training Hendersonville,"117 Saundersville Rd. Hendersonville, TN 37075",36.327075,-86.591426
D1 Training Holly Springs,"250 Premier Dr Holly Springs, NC 27540",35.652024,-78.859076
D1 Training Hoover,"5508 Stadium Trace Hoover, AL 35244",33.336701,-86.844884
D1 Training Hulen,"4800 S. Hulen St., Space 1165 Ft. Worth, TX 76132",32.679303,-97.400029
D1 Training West Frisco,"8275 Judges Way Â Suite 100A Frisco, TX 75036",33.1477,-96.892643
D1 Training Huntsville,"5000 Whitesburg Drive Â Suite 108 Huntsville, AL 35802",34.690592,-86.569643
D1 Training Indian Land,"8811 Charlotte Highway, Suite 104 Indian Land, SC 29707",34.968749,-80.854236
D1 Training Jollyville,"11521 N FM 620, Suite 750 Austin, TX 78726",30.454661,-97.825896
D1 Training Kalamazoo,"6800 S Westnedge Ave Suite 6 Portage, MI 49002",42.218642,-85.589572
D1 Training Lake Orion,"1216 S Lapeer Rd. Lake Orion, MI 48360",42.756622,-83.245491
D1 Training Lakeland,"9811 US Hwy 64 Arlington, TN 38002",35.20494,-89.734718
D1 Training Lakewood Ranch,"3025 Lakewood Ranch Blvd. Â Suite 102 Lakewood Ranch, FL 34211",27.475616,-82.43035
D1 Training Little Rock,"10 Viewpointe Cove Little Rock, AR 72223",34.799026,-92.413282
D1 Training Littleton SW,"8154 S. Kipling Parkway Unit A-110 Littleton, CO 80127",39.56874,-105.108351
D1 Training Macon,"1625 Bass Road Suite 285 Macon, GA 31210",32.929967,-83.726772
D1 Training Madison West,"243 West Towne Mall Â Unit E5 Madison, WI 53719",43.05681,-89.509471
D1 Training Alexandria,"6550 Little River Turnpike Â Unit A Alexandria, VA 22313",38.815762,-77.09005
D1 Training Mandeville,"3999 Hwy 190 East Service Rd Â Suite B Covington, LA 70433",30.496595,-90.115118
D1 Training Allen,"500 W Bethany Dr Â Suite 120 Allen, TX 75013",33.09261,-96.678122
D1 Training Marietta,"4075 Charles Hardy Pkwy Â Suite 137 Dallas, GA 30157",33.935687,-84.726031
D1 Training Merrillville,"1627 E 80th Ave Merrillville, IN 46410",41.474288,-87.315983
D1 Training Mesquite,"1220 N. Town East Blvd Suite 660 Mesquite, TX 75150",32.808972,-96.612394
D1 Training Bellaire,"5300 N. Braeswood Blvd Â Suite 44 Houston, TX 77096",29.67923,-95.477805
D1 Training Midland,"3001 Courtyard Drive Â Suite C101 Midland, TX 79705",32.032119,-102.127112
D1 Training Midlothian,"15808 WC Main Street Midlothian, VA 23113",37.515922,-77.692205
D1 Training Boston-Burlington,"60 South Ave. Burlington, MA 01803",42.483672,-71.21993
D1 Training Brookhaven,"3367 Buford Hwy NE Â Unit 900 Brookhaven, GA 30329",33.842378,-84.326802
D1 Training Mont Belvieu,"10955 Eagle Drive Mont Belvieu, TX 77523",29.851507,-94.862731
D1 Training Mooresville,"221 Norman Station Blvd. Â Suite N Mooresville, NC 28117",35.587845,-80.855194
D1 Training Murfreesboro,"3119 Medical Center Parkway Â A-1 Murfreesboro, TN 37129",35.866202,-86.453807
D1 Training Nampa,"1227 N. Galleria Dr. Nampa, ID 83687",43.595326,-116.510267
D1 Training Naples,"3397 Pine Ridge Road Naples, FL 34109",26.212333,-81.749126
D1 Training Niceville,"4544 Hwy 20 E Niceville, FL 32578",30.486252,-86.418006
D1 Training Chandler,"1870 W Germann Rd Suite 2 Chandler, AZ 85286",33.27751,-111.873526
D1 Training Des Moines,"890 Southeast Olson Drive Waukee, IA 50263",41.606275,-93.856993
D1 Training Firewheel,"475 Coneflower Drive Garland, TX 75040",32.952981,-96.612335
D1 Training Northern Kentucky,"1952 North Bend Rd Hebron, KY 41048",39.092012,-84.712048
D1 Training Friendswood,"709 W Parkwood Ave Friendswood, TX 77546",29.505068,-95.192145
D1 Training Gilbert,"8490 S Power Rd Gilbert, AZ 85297",33.264852,-111.686938
D1 Training Greenwood Village,"6570 S Yosemite Street Greenwood Village, CO 80111",39.597141,-104.888105
D1 Training of Clermont,"2631 S. HWY 27, Suite 101 Clermont, FL 34711",28.53151,-81.733355
D1 Training of Gulf Breeze,"3335 Gulf Breeze Pkwy. Suite 107A Gulf Breeze, FL 32563",30.385919,-87.084649
D1 Training Huntington Beach,"10188 Adams Ave Huntington Beach, CA 92646",33.672236,-117.950956
D1 Training O'Fallon,"3820 Monticello Plaza Drive O'Fallon, MO 63304",38.733442,-90.688617
D1 Training Malvern,"480 Lancaster Ave Suite 3 Malvern, PA 19355",40.036236,-75.563731
D1 Training Peachtree City,"611 Hwy 74 South Suite 300 Peachtree City, GA 30269",33.366948,-84.568094
D1 Training Petaluma,"1420 E Washington St Petaluma, CA 94954",38.249738,-122.62511
D1 Training Pittsburgh West,"6522 Steubenville Pike Pittsburgh, PA 15205",40.449193,-80.160616
D1 Training Mansfield,"1836 Cannon Dr Â Suite 600 Mansfield, TX 76063",32.573052,-97.107875
D1 Training Middletown,"1519 Route 35 Middletown, NJ 07748",40.404857,-74.126677
D1 Training Port Orange,"3813 S Nova Rd Â Ste 104 Port Orange, FL 32127",29.127322,-81.00482
D1 Training Milton,"12850 Hwy 9 N. Â Suite 1800 Alpharetta, GA 30004",34.096352,-84.279268
D1 Training Norcross,"5250 Triangle Parkway Â Suite 400 Norcross, GA 30092",33.978429,-84.224365
D1 Training North Pittsburgh,"20111 Rte 19 Suite 302A Cranberry Township, PA 16066",40.684104,-80.103695
D1 Training Rancho Cucamonga,"10768 Foothill Blvd STE 100 Rancho Cucamonga, CA 91730",34.108746,-117.569754
D1 Training Norwalk,"100 N. Water Street Â #SL0600 Norwalk, CT 06854",41.097092,-73.414801
D1 Training Ocotillo,"4100 S. Arizona Avenue Â Suites A-103 & A-111 Chandler, AZ 85248",33.246624,-111.845062
D1 Training Rockford,"1003 West Lane Road, Suite A Machesney Park, IL 61115",42.363711,-89.035708
D1 Training Rogers,"4667 S. Dixieland Road Rogers, AR 72758",36.275138,-94.143579
D1 Training Roseville,"410 Roseville Sq Roseville, CA 95678",38.74526,-121.276172
D1 Training San Antonio,"17530 Henderson Pass San Antonio, TX 78232",29.604787,-98.462822
D1 Training of Cary,"1279 NW Maynard Rd Cary, NC 27513",35.78582,-78.811002
D1 Training of Lake Travis,"14532 Hamilton Pool Rd Austin, TX 78738",30.307394,-97.970629
D1 Training Ponte Vedra,"10860 US Highway 1 North Â #202 Ponte Vedra Beach, FL 32081",30.085958,-81.457917
D1 Training SE Orlando,"206 N. Dean Road Â Suite 100 Orlando, FL 32825",28.544106,-81.245158
D1 Training Shreveport,"727 American Way Shreveport, LA 71106",32.424311,-93.740032
D1 Training Southern Colorado,"2225 Executive Circle, Suite 136 Colorado Springs, CO 80906",38.789492,-104.789138
D1 Training Prosperity,"5350 Docia Crossing Road; Suite C Charlotte, NC 28269",35.367107,-80.786813
D1 Training Ridge Hill,"26 Market St Yonkers, NY 10710",40.961661,-73.855635
D1 Training Spring Hill,"1006 Crossing Blvd. Spring Hill, TN 37174",35.741013,-86.940394
D1 Training Sandy Springs,"6335-H Roswell Road Sandy Springs, GA 30328",33.927373,-84.377106
D1 Training St. Petersburg,"7141 22nd Ave. N St. Petersburg, FL 33710",27.791942,-82.737807
D1 Training Scottsdale,"13402 N. Scottsdale Road Â Suite B Scottsdale, AZ 85254",33.607904,-111.926311
D1 Training Tallahassee,"1706 Capital Circle NE Â Suite #8 Tallahassee, FL 32308",30.464072,-84.228893
D1 Training St. Louis West,"14015 Manchester Road Ballwin, MO 63011",38.596174,-90.492852
D1 Training Sugar Land,"16550 Southwest Freeway Sugar Land, TX 77479",29.59176,-95.632889
D1 Training Temecula,"40820 Winchester Rd Â Suite 1425 Temecula, CA 92591",33.524763,-117.153965
D1 Training Tri Cities,"130 West Springbrook Drive Johnson City, TN 37604",36.351097,-82.383023
D1 Training Tucson,"2270 W Ina Road Â Suite 100 Tucson, AZ 85741",32.338476,-111.016253
D1 Training The Woodlands,"30340 FM 2978 Â Suite 100 The Woodlands, TX 77354",30.189849,-95.590774
D1 Training Upper Westside Atlanta,"1483 Chattahoochee Ave Â Suite 100 Atlanta, GA 30318",33.808914,-84.435662
D1 Training Vestavia Hills,"1014 Montgomery Highway Vestavia Hills, AL 35216",33.440435,-86.790249
D1 Training Virginia Beach,"3636 Virginia Beach Boulevard Â Unit #109 Virginia Beach, VA 23452",36.840969,-76.09679
D1 Training Val Vista,"1551 E. Elliot rd. Gilbert, AZ 85234",33.349773,-111.756819
D1 Training West Nashville,"2 City Blvd Nashville, TN 37209",36.152388,-86.818934
D1 Training West NOLA,"530 Elmwood Park Blvd Elmwood, LA 70123",29.949975,-90.185153
D1 Training West Omaha,"19295 Grant Ave. Omaha, NE 68022",41.280242,-96.217416
D1 Training West Wichita,"3801 N Ridge Rd Â Ste 130 Wichita, KS 67205",37.752624,-97.426885
D1 Training Westchase,"3161-6 Curlew Rd. Oldsmar, FL 34677",28.049388,-82.697779
D1 Training Westminster,"4750 W. 120th Avenue, Suite 100 Westminster, CO 80020",39.912344,-105.047617
D1 Training Willowbrook Mall,"330 Willowbrook Blvd Wayne, NJ 07470",40.886115,-74.260975
D1 Training Winchester,"178 Costello Dr Winchester, VA 22602",39.156058,-78.156715
D1 Training Winston-Salem,"147 Jonestown Road Winston-Salem, NC 27104",36.07803,-80.334721
D1 Training Winter Garden,"765 Garden Commerce Parkway Winter Garden, FL 34787",28.553723,-81.567449
