Name,Address,Latitude,Longitude
Redline Athletics - Anaheim/Fullerton,"149 E Orangethorpe Ave,, Anaheim, CA 92801",33.859931,-117.91605
Redline Athletics - Bedford,"21 Commerce Park North, Bedford, NH 03110",42.931784,-71.4582
Redline Athletics - Bowie,"4891 Tesla Dr Suite E, Bowie, MD 20715",38.956586,-76.710482
Redline Athletics - Buford,"1839 Buford Hwy, Buford,GA 30518",34.102827,-84.005412
Redline Athletics - Coppell,"801 Hammond Street, Suite 100, Coppell, Texas 75019",32.951723,-97.009467
Redline Athletics - Denver East,"4444 Forest St, Denver, CO",39.778057,-104.926797
Redline Athletics - Farmington Hills,"24800 N. Industrial Dr, Farmington Hills, MI 48335",42.474116,-83.425039
Redline Athletics - Fayetteville,"1311 Steamboat Dr. Ste. 1,, Fayetteville, AR 72704",36.080722,-94.204204
Redline Athletics - Ft. Myers,"4429 Cleveland Avenue, Suite 130, Ft. Myers, FL 33901",26.598025,-81.869862
Redline Athletics - Gig Harbor,"9644 Bujacich Rd., Bldg C/Suite F, Gig Harbor, WA 98332",47.342432,-122.615847
Redline Athletics - Gretna,"17878 Oakmont Dr., Omaha, NE 68136",41.148656,-96.194707
Redline Athletics - Hudson,"3 Security Drive, Hudson, NH 03051",42.702444,-71.42028
Redline Athletics - Idlewild,"6420 Albemarle Rd., Charlotte, NC 28212",35.201476,-80.735942
Redline Athletics - Jenks,"3412 W. 114th St. South Suite 104, Jenks, OK, 74037",35.998314,-96.014855
Redline Athletics - Lenexa,"14851 W 101st Terrace, Lenexa, KS 66215",38.944046,-94.757039
Redline Athletics - Liberty,"750 Haines Drive, Suite 100,, Liberty MO 64068",39.218437,-94.476635
Redline Athletics - Mount Pleasant,"3400 Turgot Lane,, Mount Pleasant, SC 29466",32.854262,-79.766825
Redline Athletics - North Sioux City,"300 Centennial Dr, North Sioux City, SD 57049",42.528914,-96.48912
Redline Athletics - Peachtree Corners,"4975 Avalon Ridge Parkway, Suite 100, Peachtree Corners, GA 30071",33.961997,-84.194627
Redline Athletics - San Marcos,"2937 Norman Strasse Rd, San Marcos, CA 92069",33.159947,-117.202316
Redline Athletics - Siouxland,"4501 Southern Hills Dr, Sioux City, IA 51106",42.441304,-96.348974
Redline Athletics - Sioux Falls,"2325 Enterprise Ave, Tea, SD 57064",43.44637,-96.83588
Redline Athletics - Springfield,"4234 S. Reed Ave, Springfield, MO 65804",37.136068,-93.249868
Redline Athletics - Sugar Land,"826 Summer Park Dr. Suite# 800, Stafford, TX 77477",29.608445,-95.569856
Redline Athletics - Sutton Square,"6325 Falls of Neuse Rd, Suite #24, Raleigh, NC 27615",35.869356,-78.623062
Redline Athletics - Twin Cities NW,"7115 Northland Terrace N, Brooklyn Park, MN 55428",45.084233,-93.399822
Redline Athletics - Ventura,"5120 Ralston Street, Ventura, CA 93003",34.259758,-119.22227
Redline Athletics - Webster,"1425 Atlantis Drive, Suite G, Webster, TX 77598",29.526512,-95.137466
Redline Athletics - Westerville,"200 Hoff Road, Suite A, Westerville, OH 43082",40.14288,-82.921804
Redline Athletics - Cypress,"5930 Lakeshore Drive, Cypress, CA 90630",33.829213,-118.030754
Redline Athletics - Lake Forest,"22600 Lambert St, Lake Forest, CA 92630",33.635074,-117.715236
Redline Athletics - San Juan Capistrano,"32405 Calle Perfecto, San Juan Capistrano, CA",33.489544,-117.66523
Redline Athletics - 4S Ranch,"10890 Thornmint Road, San Diego, CA",33.016793,-117.0987
Redline Athletics - Scottsdale,"14000 Hayden Rd, Scottsdale, AZ 85260",33.612722,-111.90927
Redline Athletics - Westminster,"1401 W 122nd Ave, Westminster, Colorado",39.918615,-105.002315
Redline Athletics - Woodbury,"707 Commerce Drive #300, Woodbury, MN 55125",44.940686,-92.913931
Redline Athletics - McKinney,"6151 County Road 124, McKinney, TX 75071, USA",33.230589,-96.699049
Redline Athletics - Frisco,"145 Rose Lane, Frisco, TX 75034, USA",33.149782,-96.913126
Redline Athletics - Keller,"5951 Park Vista Circle, Keller, TX, USA",32.910561,-97.258309
Redline Athletics - San Antonio,"14886 Tradesman Dr, 102-110 San Antonio, TX, USA",29.581899,-98.582972
Redline Athletics - Buffalo Grove,"1455 Busch Parkway, Buffalo Grove, IL, USA",42.170656,-87.927343
Redline Athletics - Maumee,"440 W Dussel Dr, Maumee, OH 43537, USA",41.580552,-83.675857
Redline Athletics - Forsyth County,"1670 Redi Rd, Cumming, GA, USA",34.177752,-84.165378
Redline Athletics - Morristown,"900 American Rd, Morris Plains, NJ, USA",40.825506,-74.47121
Redline Athletics - Manalapan,"28 Harrison Ave, Englishtown, NJ 07726, USA",40.297985,-74.354454
Redline Athletics - Montgomeryville,"101 Commerce Drive, Montgomeryville, PA, USA",40.233182,-75.225155
Redline Athletics - Clarksburg,"22616 Gateway Center Drive, Clarksburg, MD, USA",39.233449,-77.281281
Reline Athletics - Kensington,"3835 Plyers Mill Rd, Kensington, MD 20895, USA",39.029834,-77.076865
Redline Athletics - Hemlock Plaza,"2978 Kildaire Farm Road, Cary, NC, USA",35.718097,-78.788704
Redline Athletics - Carrollwood,"14420 N Dale Mabry Hwy, Tampa, FL 33618, USA",28.079204,-82.507869
Redline Athletics - Weston,"1756 North Commerce Parkway, Weston, FL, USA",26.095721,-80.365614
